{"type": "FeatureCollection", "features": [ {"type": "Feature", "properties": {"norad_id": 34819, "name": "COSMOS 2251 DEB", "group": "cosmos-2251-debris", "lat": -61.676077695801474, "lon": 2.169953707503906, "alt_km": 676.3082938586676, "timestamp": "2025-12-08T21:31:05.061723+00:00", "meta": {"OBJECT_NAME": "COSMOS 2251 DEB", "OBJECT_ID": "1993-036ABJ", "EPOCH": "2025-12-07T18:15:25.765632", "MEAN_MOTION": 14.63849221, "ECCENTRICITY": 0.00158632, "INCLINATION": 74.018, "RA_OF_ASC_NODE": 152.2296, "ARG_OF_PERICENTER": 246.0396, "MEAN_ANOMALY": 136.7333, "EPHEMERIS_TYPE": 0, "CLASSIFICATION_TYPE": "U", "NORAD_CAT_ID": 34819, "ELEMENT_SET_NO": 999, "REV_AT_EPOCH": 88156, "BSTAR": 0.0025142708, "MEAN_MOTION_DOT": 0.00013152, "MEAN_MOTION_DDOT": 0}, "tle": {"line1": "1 34819U 93036ABJ 25341.76071488  .00013152  00000+0  25143-2 0  9990", "line2": "2 34819  74.0180 152.2296 0015863 246.0396 136.7333 14.63849221881561"}}, "geometry": {"type": "Point", "coordinates": [2.169953707503906, -61.676077695801474]}}, {"type": "Feature", "properties": {"norad_id": 34823, "name": "COSMOS 2251 DEB", "group": "cosmos-2251-debris", "lat": 53.51394484929072, "lon": 132.3173764448943, "alt_km": 785.8725821742428, "timestamp": "2025-12-08T21:31:05.061734+00:00", "meta": {"OBJECT_NAME": "COSMOS 2251 DEB", "OBJECT_ID": "1993-036ABN", "EPOCH": "2025-12-08T14:38:57.590592", "MEAN_MOTION": 14.54880414, "ECCENTRICITY": 0.01550675, "INCLINATION": 74.0416, "RA_OF_ASC_NODE": 110.0969, "ARG_OF_PERICENTER": 195.8787, "MEAN_ANOMALY": 163.7487, "EPHEMERIS_TYPE": 0, "CLASSIFICATION_TYPE": "U", "NORAD_CAT_ID": 34823, "ELEMENT_SET_NO": 999, "REV_AT_EPOCH": 88321, "BSTAR": 0.0013873077, "MEAN_MOTION_DOT": 6.978e-05, "MEAN_MOTION_DDOT": 0}, "tle": {"line1": "1 34823U 93036ABN 25342.61038878  .00006978  00000+0  13873-2 0  9991", "line2": "2 34823  74.0416 110.0969 0155067 195.8787 163.7487 14.54880414883216"}}, "geometry": {"type": "Point", "coordinates": [132.3173764448943, 53.51394484929072]}}, {"type": "Feature", "properties": {"norad_id": 34845, "name": "COSMOS 2251 DEB", "group": "cosmos-2251-debris", "lat": 27.442976252628544, "lon": -33.033024511064625, "alt_km": 753.0581920585628, "timestamp": "2025-12-08T21:31:05.061744+00:00", "meta": {"OBJECT_NAME": "COSMOS 2251 DEB", "OBJECT_ID": "1993-036ABP", "EPOCH": "2025-12-07T18:15:00.737280", "MEAN_MOTION": 14.45843427, "ECCENTRICITY": 0.00221872, "INCLINATION": 74.0232, "RA_OF_ASC_NODE": 157.6431, "ARG_OF_PERICENTER": 319.2528, "MEAN_ANOMALY": 40.697, "EPHEMERIS_TYPE": 0, "CLASSIFICATION_TYPE": "U", "NORAD_CAT_ID": 34845, "ELEMENT_SET_NO": 999, "REV_AT_EPOCH": 87394, "BSTAR": 0.0004761184, "MEAN_MOTION_DOT": 1.669e-05, "MEAN_MOTION_DDOT": 0}, "tle": {"line1": "1 34845U 93036ABP 25341.76042520  .00001669  00000+0  47612-3 0  9990", "line2": "2 34845  74.0232 157.6431 0022187 319.2528  40.6970 14.45843427873940"}}, "geometry": {"type": "Point", "coordinates": [-33.033024511064625, 27.442976252628544]}}, {"type": "Feature", "properties": {"norad_id": 34846, "name": "COSMOS 2251 DEB", "group": "cosmos-2251-debris", "lat": 66.26559088261462, "lon": -50.40182428180157, "alt_km": 730.1185138879364, "timestamp": "2025-12-08T21:31:05.061753+00:00", "meta": {"OBJECT_NAME": "COSMOS 2251 DEB", "OBJECT_ID": "1993-036ABQ", "EPOCH": "2025-12-08T04:35:44.442240", "MEAN_MOTION": 14.47168674, "ECCENTRICITY": 0.00260208, "INCLINATION": 74.031, "RA_OF_ASC_NODE": 270.2799, "ARG_OF_PERICENTER": 337.2501, "MEAN_ANOMALY": 22.7502, "EPHEMERIS_TYPE": 0, "CLASSIFICATION_TYPE": "U", "NORAD_CAT_ID": 34846, "ELEMENT_SET_NO": 999, "REV_AT_EPOCH": 87338, "BSTAR": 0.0013772859, "MEAN_MOTION_DOT": 5.024e-05, "MEAN_MOTION_DDOT": 0}, "tle": {"line1": "1 34846U 93036ABQ 25342.19148660  .00005024  00000+0  13773-2 0  9990", "line2": "2 34846  74.0310 270.2799 0026020 337.2501  22.7502 14.47168674873384"}}, "geometry": {"type": "Point", "coordinates": [-50.40182428180157, 66.26559088261462]}}, {"type": "Feature", "properties": {"norad_id": 34852, "name": "COSMOS 2251 DEB", "group": "cosmos-2251-debris", "lat": -71.85318833469239, "lon": -150.83357631428197, "alt_km": 776.4204850470924, "timestamp": "2025-12-08T21:31:05.061764+00:00", "meta": {"OBJECT_NAME": "COSMOS 2251 DEB", "OBJECT_ID": "1993-036ABW", "EPOCH": "2025-12-08T03:30:58.051008", "MEAN_MOTION": 14.36998906, "ECCENTRICITY": 0.00159572, "INCLINATION": 74.0329, "RA_OF_ASC_NODE": 271.4188, "ARG_OF_PERICENTER": 15.6529, "MEAN_ANOMALY": 344.5114, "EPHEMERIS_TYPE": 0, "CLASSIFICATION_TYPE": "U", "NORAD_CAT_ID": 34852, "ELEMENT_SET_NO": 999, "REV_AT_EPOCH": 87468, "BSTAR": 0.00020021902, "MEAN_MOTION_DOT": 5.68e-06, "MEAN_MOTION_DDOT": 0}, "tle": {"line1": "1 34852U 93036ABW 25342.14650522  .00000568  00000+0  20022-3 0  9991", "line2": "2 34852  74.0329 271.4188 0015957  15.6529 344.5114 14.36998906874685"}}, "geometry": {"type": "Point", "coordinates": [-150.83357631428197, -71.85318833469239]}}, {"type": "Feature", "properties": {"norad_id": 34854, "name": "COSMOS 2251 DEB", "group": "cosmos-2251-debris", "lat": -3.8781541736829444, "lon": 165.00446009171858, "alt_km": 633.0960123664099, "timestamp": "2025-12-08T21:31:05.061774+00:00", "meta": {"OBJECT_NAME": "COSMOS 2251 DEB", "OBJECT_ID": "1993-036ABY", "EPOCH": "2025-12-06T06:07:08.868864", "MEAN_MOTION": 14.76535535, "ECCENTRICITY": 0.00662211, "INCLINATION": 74.0279, "RA_OF_ASC_NODE": 171.2927, "ARG_OF_PERICENTER": 284.2541, "MEAN_ANOMALY": 75.1285, "EPHEMERIS_TYPE": 0, "CLASSIFICATION_TYPE": "U", "NORAD_CAT_ID": 34854, "ELEMENT_SET_NO": 999, "REV_AT_EPOCH": 71786, "BSTAR": 0.0010983798, "MEAN_MOTION_DOT": 7.913e-05, "MEAN_MOTION_DDOT": 0}, "tle": {"line1": "1 34854U 93036ABY 25340.25496376  .00007913  00000+0  10984-2 0  9994", "line2": "2 34854  74.0279 171.2927 0066221 284.2541  75.1285 14.76535535717868"}}, "geometry": {"type": "Point", "coordinates": [165.00446009171858, -3.8781541736829444]}}, {"type": "Feature", "properties": {"norad_id": 34856, "name": "COSMOS 2251 DEB", "group": "cosmos-2251-debris", "lat": 23.148252019322683, "lon": 99.8024480295066, "alt_km": 569.5274902423334, "timestamp": "2025-12-08T21:31:05.061784+00:00", "meta": {"OBJECT_NAME": "COSMOS 2251 DEB", "OBJECT_ID": "1993-036ACA", "EPOCH": "2025-12-07T07:16:15.266208", "MEAN_MOTION": 15.05609422, "ECCENTRICITY": 0.00340835, "INCLINATION": 73.9995, "RA_OF_ASC_NODE": 96.0289, "ARG_OF_PERICENTER": 234.6289, "MEAN_ANOMALY": 154.9429, "EPHEMERIS_TYPE": 0, "CLASSIFICATION_TYPE": "U", "NORAD_CAT_ID": 34856, "ELEMENT_SET_NO": 999, "REV_AT_EPOCH": 89030, "BSTAR": 0.0029359125, "MEAN_MOTION_DOT": 0.00043129, "MEAN_MOTION_DDOT": 0}, "tle": {"line1": "1 34856U 93036ACA 25341.30295447  .00043129  00000+0  29359-2 0  9994", "line2": "2 34856  73.9995  96.0289 0034083 234.6289 154.9429 15.05609422890304"}}, "geometry": {"type": "Point", "coordinates": [99.8024480295066, 23.148252019322683]}}, {"type": "Feature", "properties": {"norad_id": 34857, "name": "COSMOS 2251 DEB", "group": "cosmos-2251-debris", "lat": -33.74366924481721, "lon": 103.12034768273276, "alt_km": 698.8673098481258, "timestamp": "2025-12-08T21:31:05.061794+00:00", "meta": {"OBJECT_NAME": "COSMOS 2251 DEB", "OBJECT_ID": "1993-036ACB", "EPOCH": "2025-12-08T10:25:24.353760", "MEAN_MOTION": 14.58817538, "ECCENTRICITY": 0.00660207, "INCLINATION": 74.0156, "RA_OF_ASC_NODE": 115.0408, "ARG_OF_PERICENTER": 240.2546, "MEAN_ANOMALY": 177.0237, "EPHEMERIS_TYPE": 0, "CLASSIFICATION_TYPE": "U", "NORAD_CAT_ID": 34857, "ELEMENT_SET_NO": 999, "REV_AT_EPOCH": 87838, "BSTAR": 0.0017018109, "MEAN_MOTION_DOT": 8.182e-05, "MEAN_MOTION_DDOT": 0}, "tle": {"line1": "1 34857U 93036ACB 25342.43430965  .00008182  00000+0  17018-2 0  9995", "line2": "2 34857  74.0156 115.0408 0066020 240.2546 177.0237 14.58817538878389"}}, "geometry": {"type": "Point", "coordinates": [103.12034768273276, -33.74366924481721]}}, {"type": "Feature", "properties": {"norad_id": 34859, "name": "COSMOS 2251 DEB", "group": "cosmos-2251-debris", "lat": -48.40332110996973, "lon": -173.53300835529467, "alt_km": 531.5148677760972, "timestamp": "2025-12-08T21:31:05.061804+00:00", "meta": {"OBJECT_NAME": "COSMOS 2251 DEB", "OBJECT_ID": "1993-036ACD", "EPOCH": "2025-12-08T11:32:59.096256", "MEAN_MOTION": 15.13637919, "ECCENTRICITY": 0.00030343, "INCLINATION": 74.0307, "RA_OF_ASC_NODE": 348.5102, "ARG_OF_PERICENTER": 325.5019, "MEAN_ANOMALY": 163.1698, "EPHEMERIS_TYPE": 0, "CLASSIFICATION_TYPE": "U", "NORAD_CAT_ID": 34859, "ELEMENT_SET_NO": 999, "REV_AT_EPOCH": 88294, "BSTAR": 0.0055058518, "MEAN_MOTION_DOT": 0.00100346, "MEAN_MOTION_DDOT": 0}, "tle": {"line1": "1 34859U 93036ACD 25342.48123954  .00100346  00000+0  55059-2 0  9991", "line2": "2 34859  74.0307 348.5102 0003034 325.5019 163.1698 15.13637919882940"}}, "geometry": {"type": "Point", "coordinates": [-173.53300835529467, -48.40332110996973]}}, {"type": "Feature", "properties": {"norad_id": 34861, "name": "COSMOS 2251 DEB", "group": "cosmos-2251-debris", "lat": -55.264919799301815, "lon": 34.284795715459914, "alt_km": 568.9817406044513, "timestamp": "2025-12-08T21:31:05.061815+00:00", "meta": {"OBJECT_NAME": "COSMOS 2251 DEB", "OBJECT_ID": "1993-036ACF", "EPOCH": "2025-12-08T07:41:26.615616", "MEAN_MOTION": 15.02148138, "ECCENTRICITY": 0.00064834, "INCLINATION": 74.0189, "RA_OF_ASC_NODE": 59.8752, "ARG_OF_PERICENTER": 61.0961, "MEAN_ANOMALY": 5.9669, "EPHEMERIS_TYPE": 0, "CLASSIFICATION_TYPE": "U", "NORAD_CAT_ID": 34861, "ELEMENT_SET_NO": 999, "REV_AT_EPOCH": 88026, "BSTAR": 0.0027854421, "MEAN_MOTION_DOT": 0.00036826, "MEAN_MOTION_DDOT": 0}, "tle": {"line1": "1 34861U 93036ACF 25342.32044694  .00036826  00000+0  27854-2 0  9993", "line2": "2 34861  74.0189  59.8752 0006483  61.0961   5.9669 15.02148138880265"}}, "geometry": {"type": "Point", "coordinates": [34.284795715459914, -55.264919799301815]}}]}